[{"OBJECT_NAME":"IRIDIUM 153","OBJECT_ID":"2017-083J","EPOCH":"2026-03-09T17:37:27.321600","MEAN_MOTION":14.3421931,"ECCENTRICITY":0.00020663,"INCLINATION":86.4011,"RA_OF_ASC_NODE":332.0651,"ARG_OF_PERICENTER":78.2032,"MEAN_ANOMALY":281.9395,"EPHEMERIS_TYPE":0,"CLASSIFICATION_TYPE":"U","NORAD_CAT_ID":43078,"ELEMENT_SET_NO":999,"REV_AT_EPOCH":43102,"BSTAR":0.00013580014,"MEAN_MOTION_DOT":4.0e-6,"MEAN_MOTION_DDOT":0},{"OBJECT_NAME":"CZ-4B DEB","OBJECT_ID":"1999-057MN","EPOCH":"2026-03-07T15:25:50.289024","MEAN_MOTION":14.49902526,"ECCENTRICITY":0.0074979,"INCLINATION":98.5561,"RA_OF_ASC_NODE":122.4445,"ARG_OF_PERICENTER":127.6024,"MEAN_ANOMALY":23.5764,"EPHEMERIS_TYPE":0,"CLASSIFICATION_TYPE":"U","NORAD_CAT_ID":27493,"ELEMENT_SET_NO":999,"REV_AT_EPOCH":33642,"BSTAR":0.00039624,"MEAN_MOTION_DOT":1.539e-5,"MEAN_MOTION_DDOT":0}]
